NORAD_CAT_ID,OBJECT_NAME,OBJECT_TYPE,EPOCH,MEAN_MOTION,ECCENTRICITY,INCLINATION,RA_OF_ASC_NODE,ARG_OF_PERICENTER,MEAN_ANOMALY,BSTAR,MEAN_MOTION_DOT,MEAN_MOTION_DDOT,TLE_LINE0,TLE_LINE1,TLE_LINE2,SEMIMAJOR_AXIS,PERIOD,APOGEE,PERIGEE,DECAYED
52601.0,STARLINK-4027,PAYLOAD,2023-11-12 19:03:15,15.08841092,0.0001612,53.216,125.4726,89.0685,271.0492,9.4913e-05,1.223e-05,0.0,0 STARLINK-4027,1 52601U 22052D   23316.79393131  .00001223  00000-0  94913-4 0  9994,2 52601  53.2160 125.4726 0001612  89.0685 271.0492 15.08841092 83651,6917.877,95.437,540.857,538.627,0.0
52601.0,STARLINK-4027,PAYLOAD,2023-11-13 10:57:06,15.08844512,0.0001587,53.2158,122.4994,90.6661,269.4513,0.00010212,1.338e-05,0.0,0 STARLINK-4027,1 52601U 22052D   23317.45632805  .00001338  00000-0  10212-3 0  9998,2 52601  53.2158 122.4994 0001587  90.6661 269.4513 15.08844512 83751,6917.867,95.437,540.829,538.634,0.0
52601.0,STARLINK-4027,PAYLOAD,2023-11-13 17:18:39,15.08846553,0.0001579,53.2158,121.3099,90.7375,269.3798,9.7071e-05,1.257e-05,0.0,0 STARLINK-4027,1 52601U 22052D   23317.72128605  .00001257  00000-0  97071-4 0  9995,2 52601  53.2158 121.3099 0001579  90.7375 269.3798 15.08846553 83367,6917.86,95.437,540.818,538.633,0.0
52601.0,STARLINK-4027,PAYLOAD,2023-11-14 10:47:54,15.08835762,0.0001526,53.2158,118.0389,91.2601,268.8566,6.3627e-05,7.25e-06,0.0,0 STARLINK-4027,1 52601U 22052D   23318.44993306  .00000725  00000-0  63627-4 0  9992,2 52601  53.2158 118.0389 0001526  91.2601 268.8566 15.08835762 83471,6917.893,95.438,540.814,538.703,0.0
52601.0,STARLINK-4027,PAYLOAD,2023-11-14 17:09:26,15.08833998,0.0001555,53.2157,116.8491,90.8622,269.2549,4.0656e-05,3.59e-06,0.0,0 STARLINK-4027,1 52601U 22052D   23318.71489554  .00000359  00000-0  40656-4 0  9997,2 52601  53.2157 116.8491 0001555  90.8622 269.2549 15.08833998 83947,6917.899,95.438,540.839,538.688,0.0
52601.0,STARLINK-4027,PAYLOAD,2023-11-15 10:38:40,15.08844228,0.0001632,53.2153,113.5776,90.8083,269.3096,4.4708e-05,4.24e-06,0.0,0 STARLINK-4027,1 52601U 22052D   23319.44352877  .00000424  00000-0  44708-4 0  9990,2 52601  53.2153 113.5776 0001632  90.8083 269.3096 15.08844228 83621,6917.867,95.437,540.861,538.603,0.0
52601.0,STARLINK-4027,PAYLOAD,2023-11-15 17:00:13,15.08846448,0.0001623,53.2153,112.3887,88.2607,271.8571,6.2586e-05,7.08e-06,0.0,0 STARLINK-4027,1 52601U 22052D   23319.70848624  .00000708  00000-0  62586-4 0  9998,2 52601  53.2153 112.3887 0001623  88.2607 271.8571 15.08846448 84098,6917.861,95.437,540.848,538.603,0.0
52601.0,STARLINK-4027,PAYLOAD,2023-11-16 10:29:28,15.08835269,0.0001589,53.2155,109.1172,87.7245,272.3929,8.1972e-05,1.017e-05,0.0,0 STARLINK-4027,1 52601U 22052D   23320.43713309  .00001017  00000-0  81972-4 0  9995,2 52601  53.2155 109.1172 0001589  87.7245 272.3929 15.08835269 83770,6917.895,95.438,540.859,538.661,0.0
52601.0,STARLINK-4027,PAYLOAD,2023-11-17 11:55:38,15.08835397,0.0001587,53.2136,104.3588,85.2539,274.8634,-2.7133e-05,-7.2e-06,0.0,0 STARLINK-4027,1 52601U 22052D   23321.49697764 -.00000720  00000-0 -27133-4 0  9999,2 52601  53.2136 104.3588 0001587  85.2539 274.8634 15.08835397 83934,6917.894,95.438,540.857,538.662,0.0
52601.0,STARLINK-4027,PAYLOAD,2023-11-17 13:31:02,15.0883499,0.0001263,53.2167,104.0626,89.4588,270.6549,-2.9519e-05,-7.58e-06,0.0,0 STARLINK-4027,1 52601U 22052D   23321.56321803 -.00000758  00000-0 -29519-4 0  9996,2 52601  53.2167 104.0626 0001263  89.4588 270.6549 15.08834990 84375,6917.896,95.438,540.634,538.887,0.0
52601.0,STARLINK-4027,PAYLOAD,2023-11-17 16:41:48,15.0883821,0.000135,53.2158,103.4674,84.619,275.4956,-4.3898e-06,-3.58e-06,0.0,0 STARLINK-4027,1 52601U 22052D   23321.69569622 -.00000358  00000-0 -43898-5 0  9996,2 52601  53.2158 103.4674 0001350  84.6190 275.4956 15.08838210 84390,6917.886,95.438,540.685,538.817,0.0
52601.0,STARLINK-4027,PAYLOAD,2023-11-18 08:35:39,15.08859805,0.0001427,53.2168,100.4946,94.9673,265.1482,-0.00026303,-4.474e-05,0.0,0 STARLINK-4027,1 52601U 22052D   23322.35809515 -.00004474  00000-0 -26303-3 0  9991,2 52601  53.2168 100.4946 0001427  94.9673 265.1482 15.08859805 84062,6917.82,95.436,540.672,538.698,0.0
52601.0,STARLINK-4027,PAYLOAD,2023-11-18 16:32:35,15.08836272,0.0001637,53.2171,99.0081,94.1594,265.9585,8.9908e-05,1.143e-05,0.0,0 STARLINK-4027,1 52601U 22052D   23322.68929728  .00001143  00000-0  89908-4 0  9995,2 52601  53.2171  99.0081 0001637  94.1594 265.9585 15.08836272 84117,6917.892,95.438,540.889,538.624,0.0
52601.0,STARLINK-4027,PAYLOAD,2023-11-19 14:47:58,15.08843138,0.0001412,53.2176,94.8454,89.6696,270.4458,6.5914e-05,7.61e-06,0.0,0 STARLINK-4027,1 52601U 22052D   23323.61665459  .00000761  00000-0  65914-4 0  9993,2 52601  53.2176  94.8454 0001412  89.6696 270.4458 15.08843138 84683,6917.871,95.437,540.713,538.759,0.0
52601.0,STARLINK-4027,PAYLOAD,2023-11-19 16:23:22,15.08840382,0.0001425,53.2174,94.547,88.6096,271.5059,0.00012216,1.657e-05,0.0,0 STARLINK-4027,1 52601U 22052D   23323.68289499  .00001657  00000-0  12216-3 0  9997,2 52601  53.2174  94.5470 0001425  88.6096 271.5059 15.08840382 84691,6917.879,95.438,540.73,538.758,0.0
52601.0,STARLINK-4027,PAYLOAD,2023-11-20 01:55:41,15.08840228,0.0001334,53.2169,92.7632,89.496,270.6185,6.9893e-05,8.25e-06,0.0,0 STARLINK-4027,1 52601U 22052D   23324.08033589  .00000825  00000-0  69893-4 0  9999,2 52601  53.2169  92.7632 0001334  89.4960 270.6185 15.08840228 84322,6917.88,95.438,540.668,538.822,0.0
52601.0,STARLINK-4027,PAYLOAD,2023-11-20 14:38:46,15.08842922,0.0001365,53.217,90.3847,90.1292,269.9856,6.9704e-05,8.22e-06,0.0,0 STARLINK-4027,1 52601U 22052D   23324.61025479  .00000822  00000-0  69704-4 0  9995,2 52601  53.2170  90.3847 0001365  90.1292 269.9856 15.08842922 84832,6917.871,95.437,540.681,538.792,0.0
52601.0,STARLINK-4027,PAYLOAD,2023-11-20 17:49:31,15.08846854,0.0001427,53.2174,89.7899,89.2799,270.8357,9.487e-05,1.222e-05,0.0,0 STARLINK-4027,1 52601U 22052D   23324.74273143  .00001222  00000-0  94870-4 0  9999,2 52601  53.2174  89.7899 0001427  89.2799 270.8357 15.08846854 84852,6917.859,95.437,540.712,538.737,0.0
52601.0,STARLINK-4027,PAYLOAD,2023-11-21 12:54:10,15.08842434,0.0001237,53.2163,86.221,84.7611,275.3522,9.0797e-06,-1.43e-06,0.0,0 STARLINK-4027,1 52601U 22052D   23325.53761589 -.00000143  00000-0  90797-5 0  9990,2 52601  53.2163  86.2210 0001237  84.7611 275.3522 15.08842434 84978,6917.873,95.437,540.594,538.882,0.0
52601.0,STARLINK-4027,PAYLOAD,2023-11-21 17:40:19,15.08847939,0.0001735,53.2176,85.3309,79.2375,280.8813,7.2305e-05,8.63e-06,0.0,0 STARLINK-4027,1 52601U 22052D   23325.73633154  .00000863  00000-0  72305-4 0  9990,2 52601  53.2176  85.3309 0001735  79.2375 280.8813 15.08847939 85004,6917.856,95.437,540.921,538.521,0.0
52601.0,STARLINK-4027,PAYLOAD,2023-11-22 14:20:19,15.08853842,0.0001549,53.2196,81.4613,95.0942,265.0227,7.1545e-05,8.51e-06,0.0,0 STARLINK-4027,1 52601U 22052D   23326.59744442  .00000851  00000-0  71545-4 0  9990,2 52601  53.2196  81.4613 0001549  95.0942 265.0227 15.08853842 85138,6917.838,95.437,540.775,538.632,0.0
52601.0,STARLINK-4027,PAYLOAD,2023-11-23 11:00:20,15.0883881,0.0001509,53.2198,77.5933,99.1105,261.0058,1.1931e-05,-9.8e-07,0.0,0 STARLINK-4027,1 52601U 22052D   23327.45857508 -.00000098  00000-0  11931-4 0  9991,2 52601  53.2198  77.5933 0001509  99.1105 261.0058 15.08838810 84835,6917.884,95.438,540.793,538.705,0.0
52601.0,STARLINK-4027,PAYLOAD,2023-11-23 14:11:07,15.08839417,0.0001473,53.2186,76.9989,104.2789,255.8367,-1.1031e-05,-4.64e-06,0.0,0 STARLINK-4027,1 52601U 22052D   23327.59105488 -.00000464  00000-0 -11031-4 0  9998,2 52601  53.2186  76.9989 0001473 104.2789 255.8367 15.08839417 85280,6917.882,95.438,540.766,538.728,0.0
52601.0,STARLINK-4027,PAYLOAD,2023-11-24 10:51:08,15.0883403,0.0001628,53.2194,73.1425,111.6673,248.4493,-9.7903e-05,-1.846e-05,0.0,0 STARLINK-4027,1 52601U 22052D   23328.45218572 -.00001846  00000-0 -97903-4 0  9990,2 52601  53.2194  73.1425 0001628 111.6673 248.4493 15.08834030 84989,6917.899,95.438,540.89,538.637,0.0
52601.0,STARLINK-4027,PAYLOAD,2023-11-24 14:01:55,15.08833702,0.00016,53.2191,72.5457,106.1718,253.945,-3.5581e-05,-8.54e-06,0.0,0 STARLINK-4027,1 52601U 22052D   23328.58466458 -.00000854  00000-0 -35581-4 0  9994,2 52601  53.2191  72.5457 0001600 106.1718 253.9450 15.08833702 85433,6917.9,95.438,540.872,538.658,0.0
52601.0,STARLINK-4027,PAYLOAD,2023-11-24 18:48:03,15.08845753,0.0001544,53.2196,71.6451,91.0066,269.1103,-5.8558e-05,-1.22e-05,0.0,0 STARLINK-4027,1 52601U 22052D   23328.78337645 -.00001220  00000-0 -58558-4 0  9998,2 52601  53.2196  71.6451 0001544  91.0066 269.1103 15.08845753 85036,6917.863,95.437,540.796,538.66,0.0
52601.0,STARLINK-4027,PAYLOAD,2023-11-25 12:17:17,15.08847796,0.0001411,53.218,68.3786,79.4422,280.6729,0.0002787,4.151e-05,0.0,0 STARLINK-4027,1 52601U 22052D   23329.51201263  .00004151  00000-0  27870-3 0  9992,2 52601  53.2180  68.3786 0001411  79.4422 280.6729 15.08847796 85572,6917.857,95.437,540.698,538.745,0.0
52601.0,STARLINK-4027,PAYLOAD,2023-11-26 13:43:26,15.08862619,0.000144,53.2188,63.6209,105.3475,254.7676,0.00027411,4.08e-05,0.0,0 STARLINK-4027,1 52601U 22052D   23330.57183839  .00004080  00000-0  27411-3 0  9990,2 52601  53.2188  63.6209 0001440 105.3475 254.7676 15.08862619 85739,6917.811,95.436,540.672,538.68,0.0
52601.0,STARLINK-4027,PAYLOAD,2023-11-27 11:58:53,15.08838923,0.0001338,53.2182,59.4578,110.6662,249.4473,-0.00013427,-2.424e-05,0.0,0 STARLINK-4027,1 52601U 22052D   23331.49922593 -.00002424  00000-0 -13427-3 0  9994,2 52601  53.2182  59.4578 0001338 110.6662 249.4473 15.08838923 85443,6917.884,95.438,540.674,538.823,0.0
52601.0,STARLINK-4027,PAYLOAD,2023-11-27 13:34:16,15.08836329,0.0001395,53.2184,59.1607,69.2733,290.8408,-0.00015302,-2.722e-05,0.0,0 STARLINK-4027,1 52601U 22052D   23331.56547008 -.00002722  00000-0 -15302-3 0  9991,2 52601  53.2184  59.1607 0001395  69.2733 290.8408 15.08836329 85880,6917.892,95.438,540.722,538.792,0.0
